[{"OBJECT_NAME":"ATLAS CENTAUR 2","OBJECT_ID":"1963-047A","EPOCH":"2026-03-20T10:24:03.220704","MEAN_MOTION":14.12105194,"ECCENTRICITY":0.05474503,"INCLINATION":30.3532,"RA_OF_ASC_NODE":135.598,"ARG_OF_PERICENTER":174.9722,"MEAN_ANOMALY":185.6667,"EPHEMERIS_TYPE":0,"CLASSIFICATION_TYPE":"U","NORAD_CAT_ID":694,"ELEMENT_SET_NO":999,"REV_AT_EPOCH":13314,"BSTAR":0.00019396393,"MEAN_MOTION_DOT":1.694e-5,"MEAN_MOTION_DDOT":0},{"OBJECT_NAME":"THOR AGENA D R/B","OBJECT_ID":"1964-002A","EPOCH":"2026-03-20T11:26:15.881280","MEAN_MOTION":14.34026008,"ECCENTRICITY":0.0032202,"INCLINATION":99.122,"RA_OF_ASC_NODE":93.4019,"ARG_OF_PERICENTER":225.8659,"MEAN_ANOMALY":133.9875,"EPHEMERIS_TYPE":0,"CLASSIFICATION_TYPE":"U","NORAD_CAT_ID":733,"ELEMENT_SET_NO":999,"REV_AT_EPOCH":23984,"BSTAR":7.6304628e-5,"MEAN_MOTION_DOT":1.65e-6,"MEAN_MOTION_DDOT":0},{"OBJECT_NAME":"SL-3 R/B","OBJECT_ID":"1964-053B","EPOCH":"2026-03-20T00:36:37.107936","MEAN_MOTION":14.61375271,"ECCENTRICITY":0.00801173,"INCLINATION":65.0766,"RA_OF_ASC_NODE":300.9352,"ARG_OF_PERICENTER":288.9673,"MEAN_ANOMALY":70.2757,"EPHEMERIS_TYPE":0,"CLASSIFICATION_TYPE":"U","NORAD_CAT_ID":877,"ELEMENT_SET_NO":999,"REV_AT_EPOCH":26830,"BSTAR":4.6774277e-5,"MEAN_MOTION_DOT":1.16e-6,"MEAN_MOTION_DDOT":0},{"OBJECT_NAME":"SL-8 R/B","OBJECT_ID":"1967-045B","EPOCH":"2026-03-20T03:54:34.800192","MEAN_MOTION":14.45631057,"ECCENTRICITY":0.00646194,"INCLINATION":74.0128,"RA_OF_ASC_NODE":328.5318,"ARG_OF_PERICENTER":332.4226,"MEAN_ANOMALY":27.3508,"EPHEMERIS_TYPE":0,"CLASSIFICATION_TYPE":"U","NORAD_CAT_ID":2802,"ELEMENT_SET_NO":999,"REV_AT_EPOCH":9053,"BSTAR":7.9078332e-5,"MEAN_MOTION_DOT":2.58e-6,"MEAN_MOTION_DDOT":0},{"OBJECT_NAME":"SL-8 R/B","OBJECT_ID":"1968-040B","EPOCH":"2026-03-20T13:22:20.379648","MEAN_MOTION":15.03323921,"ECCENTRICITY":0.00234741,"INCLINATION":74.0295,"RA_OF_ASC_NODE":291.487,"ARG_OF_PERICENTER":111.0996,"MEAN_ANOMALY":249.2706,"EPHEMERIS_TYPE":0,"CLASSIFICATION_TYPE":"U","NORAD_CAT_ID":3230,"ELEMENT_SET_NO":999,"REV_AT_EPOCH":9164,"BSTAR":0.00017499494,"MEAN_MOTION_DOT":2.346e-5,"MEAN_MOTION_DDOT":0},{"OBJECT_NAME":"OAO 2","OBJECT_ID":"1968-110A","EPOCH":"2026-03-20T14:44:17.410560","MEAN_MOTION":14.47313823,"ECCENTRICITY":0.00062174,"INCLINATION":34.9924,"RA_OF_ASC_NODE":204.2276,"ARG_OF_PERICENTER":284.4764,"MEAN_ANOMALY":75.5237,"EPHEMERIS_TYPE":0,"CLASSIFICATION_TYPE":"U","NORAD_CAT_ID":3597,"ELEMENT_SET_NO":999,"REV_AT_EPOCH":2068,"BSTAR":6.6474921e-5,"MEAN_MOTION_DOT":2.28e-6,"MEAN_MOTION_DDOT":0},{"OBJECT_NAME":"ISIS 1","OBJECT_ID":"1969-009A","EPOCH":"2026-03-20T06:02:25.280736","MEAN_MOTION":11.30417072,"ECCENTRICITY":0.17078773,"INCLINATION":88.4523,"RA_OF_ASC_NODE":154.1565,"ARG_OF_PERICENTER":67.8562,"MEAN_ANOMALY":309.4546,"EPHEMERIS_TYPE":0,"CLASSIFICATION_TYPE":"U","NORAD_CAT_ID":3669,"ELEMENT_SET_NO":999,"REV_AT_EPOCH":34972,"BSTAR":7.5381729e-5,"MEAN_MOTION_DOT":1.28e-6,"MEAN_MOTION_DDOT":0},{"OBJECT_NAME":"SERT 2","OBJECT_ID":"1970-009A","EPOCH":"2026-03-20T14:52:21.450144","MEAN_MOTION":13.58730766,"ECCENTRICITY":0.00054358,"INCLINATION":99.2774,"RA_OF_ASC_NODE":22.1159,"ARG_OF_PERICENTER":129.7461,"MEAN_ANOMALY":43.6675,"EPHEMERIS_TYPE":0,"CLASSIFICATION_TYPE":"U","NORAD_CAT_ID":4327,"ELEMENT_SET_NO":999,"REV_AT_EPOCH":78137,"BSTAR":5.5202613e-5,"MEAN_MOTION_DOT":-1.0e-8,"MEAN_MOTION_DDOT":0},{"OBJECT_NAME":"SL-3 R/B","OBJECT_ID":"1971-028B","EPOCH":"2026-03-20T14:43:26.806080","MEAN_MOTION":15.62026781,"ECCENTRICITY":0.0013619,"INCLINATION":81.2377,"RA_OF_ASC_NODE":38.5276,"ARG_OF_PERICENTER":238.2131,"MEAN_ANOMALY":121.7796,"EPHEMERIS_TYPE":0,"CLASSIFICATION_TYPE":"U","NORAD_CAT_ID":5118,"ELEMENT_SET_NO":999,"REV_AT_EPOCH":99037,"BSTAR":0.00043903242,"MEAN_MOTION_DOT":0.00038638,"MEAN_MOTION_DDOT":0},{"OBJECT_NAME":"ASTEX 1","OBJECT_ID":"1971-089A","EPOCH":"2026-03-20T10:39:36.451296","MEAN_MOTION":14.50780397,"ECCENTRICITY":0.00173376,"INCLINATION":92.7105,"RA_OF_ASC_NODE":155.2364,"ARG_OF_PERICENTER":53.9828,"MEAN_ANOMALY":306.2982,"EPHEMERIS_TYPE":0,"CLASSIFICATION_TYPE":"U","NORAD_CAT_ID":5560,"ELEMENT_SET_NO":999,"REV_AT_EPOCH":86386,"BSTAR":9.5225797e-5,"MEAN_MOTION_DOT":3.74e-6,"MEAN_MOTION_DDOT":0},{"OBJECT_NAME":"SL-8 R/B","OBJECT_ID":"1971-119B","EPOCH":"2026-03-20T12:15:14.310720","MEAN_MOTION":14.38084324,"ECCENTRICITY":0.05473651,"INCLINATION":73.887,"RA_OF_ASC_NODE":155.4906,"ARG_OF_PERICENTER":119.8423,"MEAN_ANOMALY":245.8301,"EPHEMERIS_TYPE":0,"CLASSIFICATION_TYPE":"U","NORAD_CAT_ID":5730,"ELEMENT_SET_NO":999,"REV_AT_EPOCH":65704,"BSTAR":0.0003887457,"MEAN_MOTION_DOT":7.429e-5,"MEAN_MOTION_DDOT":0},{"OBJECT_NAME":"OAO 3 (COPERNICUS)","OBJECT_ID":"1972-065A","EPOCH":"2026-03-20T12:58:07.364064","MEAN_MOTION":14.60006483,"ECCENTRICITY":0.00072839,"INCLINATION":35.0046,"RA_OF_ASC_NODE":235.4936,"ARG_OF_PERICENTER":252.0125,"MEAN_ANOMALY":165.1221,"EPHEMERIS_TYPE":0,"CLASSIFICATION_TYPE":"U","NORAD_CAT_ID":6153,"ELEMENT_SET_NO":999,"REV_AT_EPOCH":84778,"BSTAR":7.1804927e-5,"MEAN_MOTION_DOT":3.29e-6,"MEAN_MOTION_DDOT":0},{"OBJECT_NAME":"ATLAS CENTAUR R/B","OBJECT_ID":"1972-065B","EPOCH":"2026-03-20T12:05:50.585280","MEAN_MOTION":14.77716471,"ECCENTRICITY":0.00328687,"INCLINATION":35.0005,"RA_OF_ASC_NODE":242.3754,"ARG_OF_PERICENTER":101.2203,"MEAN_ANOMALY":259.2194,"EPHEMERIS_TYPE":0,"CLASSIFICATION_TYPE":"U","NORAD_CAT_ID":6155,"ELEMENT_SET_NO":999,"REV_AT_EPOCH":84286,"BSTAR":0.00017194506,"MEAN_MOTION_DOT":1.239e-5,"MEAN_MOTION_DDOT":0},{"OBJECT_NAME":"SL-8 R/B","OBJECT_ID":"1975-112B","EPOCH":"2026-03-20T11:50:31.950240","MEAN_MOTION":14.38209812,"ECCENTRICITY":0.00144513,"INCLINATION":74.0637,"RA_OF_ASC_NODE":359.0398,"ARG_OF_PERICENTER":87.7386,"MEAN_ANOMALY":272.5423,"EPHEMERIS_TYPE":0,"CLASSIFICATION_TYPE":"U","NORAD_CAT_ID":8459,"ELEMENT_SET_NO":999,"REV_AT_EPOCH":63342,"BSTAR":8.1219613e-5,"MEAN_MOTION_DOT":2.21e-6,"MEAN_MOTION_DDOT":0},{"OBJECT_NAME":"SL-3 R/B","OBJECT_ID":"1977-057B","EPOCH":"2026-03-20T14:17:09.676896","MEAN_MOTION":15.45788565,"ECCENTRICITY":0.00063295,"INCLINATION":97.5783,"RA_OF_ASC_NODE":251.9996,"ARG_OF_PERICENTER":238.5013,"MEAN_ANOMALY":121.5617,"EPHEMERIS_TYPE":0,"CLASSIFICATION_TYPE":"U","NORAD_CAT_ID":10114,"ELEMENT_SET_NO":999,"REV_AT_EPOCH":67001,"BSTAR":0.00026547455,"MEAN_MOTION_DOT":0.00012775,"MEAN_MOTION_DDOT":0},{"OBJECT_NAME":"SEASAT 1","OBJECT_ID":"1978-064A","EPOCH":"2026-03-20T10:12:25.282368","MEAN_MOTION":14.46168493,"ECCENTRICITY":0.00025017,"INCLINATION":108.0087,"RA_OF_ASC_NODE":148.0263,"ARG_OF_PERICENTER":280.9211,"MEAN_ANOMALY":79.1653,"EPHEMERIS_TYPE":0,"CLASSIFICATION_TYPE":"U","NORAD_CAT_ID":10967,"ELEMENT_SET_NO":999,"REV_AT_EPOCH":50806,"BSTAR":8.9574706e-5,"MEAN_MOTION_DOT":1.83e-6,"MEAN_MOTION_DDOT":0},{"OBJECT_NAME":"SL-14 R/B","OBJECT_ID":"1979-011B","EPOCH":"2026-03-20T09:05:18.682080","MEAN_MOTION":14.91920753,"ECCENTRICITY":0.00167167,"INCLINATION":82.5204,"RA_OF_ASC_NODE":86.4247,"ARG_OF_PERICENTER":27.1182,"MEAN_ANOMALY":333.0907,"EPHEMERIS_TYPE":0,"CLASSIFICATION_TYPE":"U","NORAD_CAT_ID":11267,"ELEMENT_SET_NO":999,"REV_AT_EPOCH":53037,"BSTAR":5.1713979e-5,"MEAN_MOTION_DOT":5.5e-6,"MEAN_MOTION_DDOT":0}]
